{"epoch":1784799577,"count":18318,"objects":[{"id":"68603","name":"STARLINK-37189","type":"PAYLOAD","l1":"1 68603U 26073B   26203.50615909  .00065106  00000-0  20011-2 0  9993","l2":"2 68603  97.2889  42.3248 0002197 102.6706 257.4782 15.33453880 16543"},{"id":"68604","name":"STARLINK-37130","type":"PAYLOAD","l1":"1 68604U 26073C   26203.51162595  .00021097  00000-0  65382-3 0  9995","l2":"2 68604  97.2869  42.3183 0002056  86.4066 273.7411 15.33451354 16546"},{"id":"68605","name":"STARLINK-37131","type":"PAYLOAD","l1":"1 68605U 26073D   26203.05753114  .00019522  00000-0  60522-3 0  9999","l2":"2 68605  97.2849  41.8675 0001600 133.5982 226.5394 15.33457733 16475"},{"id":"68606","name":"STARLINK-37253","type":"PAYLOAD","l1":"1 68606U 26073E   26203.79165529  .00016786  00000-0  52092-3 0  9990","l2":"2 68606  97.2848  42.7062 0002122  91.9756 268.1730 15.33455578 16595"},{"id":"68607","name":"STARLINK-37246","type":"PAYLOAD","l1":"1 68607U 26073F   26203.13366822  .00023964  00000-0  74189-3 0  9995","l2":"2 68607  97.2840  42.0654 0002407  91.3450 268.8069 15.33459420 16490"},{"id":"68608","name":"STARLINK-37243","type":"PAYLOAD","l1":"1 68608U 26073G   26203.28048874  .00014794  00000-0  45975-3 0  9998","l2":"2 68608  97.2866  42.1796 0001738  96.0839 264.0602 15.33439848 16512"},{"id":"68609","name":"STARLINK-37250","type":"PAYLOAD","l1":"1 68609U 26073H   26203.12550650  .00025703  00000-0  79542-3 0  9991","l2":"2 68609  97.2842  41.9279 0001277 103.5550 256.5835 15.33459461 16485"},{"id":"68610","name":"STARLINK-37105","type":"PAYLOAD","l1":"1 68610U 26073J   26203.79709147  .00016785  00000-0  52134-3 0  9991","l2":"2 68610  97.2944  42.6969 0001334 111.3205 248.8180 15.33430141 16595"},{"id":"68611","name":"STARLINK-37177","type":"PAYLOAD","l1":"1 68611U 26073K   26203.28864683  .00014172  00000-0  44038-3 0  9995","l2":"2 68611  97.2881  42.1659 0002116  96.3242 263.8242 15.33451268 16510"},{"id":"68612","name":"STARLINK-36386","type":"PAYLOAD","l1":"1 68612U 26073L   26203.82700143  .00028499  00000-0  88151-3 0  9997","l2":"2 68612  97.2868  42.6584 0001310  99.3147 260.8244 15.33454357 16599"},{"id":"68613","name":"STARLINK-36187","type":"PAYLOAD","l1":"1 68613U 26073M   26203.12822558  .00024083  00000-0  74557-3 0  9996","l2":"2 68613  97.2834  42.0749 0001621  94.8899 265.2529 15.33459516 16495"},{"id":"68614","name":"STARLINK-37170","type":"PAYLOAD","l1":"1 68614U 26073N   26203.09016293  .00009877  00000-0  30784-3 0  9992","l2":"2 68614  97.2881  41.9737 0002171  86.3294 273.8197 15.33445803 16488"},{"id":"68615","name":"STARLINK-37176","type":"PAYLOAD","l1":"1 68615U 26073P   26203.52791705  .00026235  00000-0  81201-3 0  9996","l2":"2 68615  97.2870  42.4522 0001935  86.2435 273.9029 15.33449624 16556"},{"id":"68616","name":"STARLINK-37152","type":"PAYLOAD","l1":"1 68616U 26073Q   26203.80525172  .00027390  00000-0  84650-3 0  9995","l2":"2 68616  97.2896  42.6841 0002506 102.2753 257.8770 15.33487118 16596"},{"id":"68617","name":"STARLINK-37186","type":"PAYLOAD","l1":"1 68617U 26073R   26203.83515980  .00021623  00000-0  66968-3 0  9990","l2":"2 68617  97.2863  42.6445 0002846  87.1233 273.0335 15.33465916 16591"},{"id":"68618","name":"STARLINK-37179","type":"PAYLOAD","l1":"1 68618U 26073S   26203.27777092  .00005956  00000-0  18661-3 0  9991","l2":"2 68618  97.2878  42.1766 0001898  87.7840 272.3620 15.33452908 16513"},{"id":"68619","name":"STARLINK-37226","type":"PAYLOAD","l1":"1 68619U 26073T   26203.81612415  .00016127  00000-0  50071-3 0  9992","l2":"2 68619  97.2902  42.6726 0001325  93.2549 266.8845 15.33449943 16596"},{"id":"68620","name":"STARLINK-37211","type":"PAYLOAD","l1":"1 68620U 26073U   26203.13094471  .00014056  00000-0  43682-3 0  9994","l2":"2 68620  97.2859  42.0727 0001502  91.3483 268.7932 15.33451144 16490"},{"id":"68621","name":"STARLINK-37269","type":"PAYLOAD","l1":"1 68621U 26073V   26203.10375974  .00015759  00000-0  48932-3 0  9996","l2":"2 68621  97.2870  41.9527 0002759  91.2752 268.8807 15.33450472 16487"},{"id":"68622","name":"STARLINK-37252","type":"PAYLOAD","l1":"1 68622U 26073W   26203.82428208  .00027090  00000-0  83780-3 0  9996","l2":"2 68622  97.2885  42.6593 0002544  92.4910 267.6624 15.33466979 16591"},{"id":"68623","name":"STARLINK-37284","type":"PAYLOAD","l1":"1 68623U 26073X   26203.82972290  .00024865  00000-0  77013-3 0  9991","l2":"2 68623  97.2869  42.6558 0001058 102.0896 258.0465 15.33439584 16594"},{"id":"68624","name":"STARLINK-37231","type":"PAYLOAD","l1":"1 68624U 26073Y   26203.81340541  .00023596  00000-0  73045-3 0  9990","l2":"2 68624  97.2881  42.6729 0002670  96.5334 263.6212 15.33463859 16598"},{"id":"68625","name":"STARLINK-37249","type":"PAYLOAD","l1":"1 68625U 26073Z   26203.79437470  .00022628  00000-0  70085-3 0  9992","l2":"2 68625  97.2856  42.7032 0002161  91.3169 268.8322 15.33456331 16599"},{"id":"68626","name":"STARLINK-37285","type":"PAYLOAD","l1":"1 68626U 26073AA  26203.12426690  .00013714  00000-0  42625-3 0  9997","l2":"2 68626  97.2860  42.8413 0001908  71.2416 288.9034 15.33451850 16548"},{"id":"68662","name":"STARLINK-37195","type":"PAYLOAD","l1":"1 68662U 26077A   26203.89130231  .00025216  00000-0  78074-3 0  9995","l2":"2 68662  97.2842  74.5649 0002643  93.9692 266.1853 15.33444714 15878"},{"id":"68663","name":"STARLINK-37222","type":"PAYLOAD","l1":"1 68663U 26077B   26203.36379569  .00027612  00000-0  85431-3 0  9994","l2":"2 68663  97.2852  74.0589 0002327  91.8843 268.2666 15.33450187 15799"},{"id":"68664","name":"STARLINK-37153","type":"PAYLOAD","l1":"1 68664U 26077C   26203.88855881  .00014754  00000-0  45828-3 0  9997","l2":"2 68664  97.2859  74.5710 0001615  82.0501 278.0925 15.33455736 15871"},{"id":"68665","name":"STARLINK-37171","type":"PAYLOAD","l1":"1 68665U 26077D   26203.16531180  .00018492  00000-0  57335-3 0  9991","l2":"2 68665  97.2824  73.8668 0001414 108.9533 251.1863 15.33464660 15765"},{"id":"68666","name":"STARLINK-37109","type":"PAYLOAD","l1":"1 68666U 26077E   26203.88040194  .00015780  00000-0  48989-3 0  9993","l2":"2 68666  97.2868  74.5816 0001057  90.6105 269.5259 15.33458112 15871"},{"id":"68667","name":"STARLINK-36295","type":"PAYLOAD","l1":"1 68667U 26077F   26203.22513225  .00025808  00000-0  79865-3 0  9991","l2":"2 68667  97.2836  73.9425 0002339  86.8809 273.2702 15.33457738 15775"}]}