OBJECT_NAME,OBJECT_ID,EPOCH,MEAN_MOTION,ECCENTRICITY,INCLINATION,RA_OF_ASC_NODE,ARG_OF_PERICENTER,MEAN_ANOMALY,EPHEMERIS_TYPE,CLASSIFICATION_TYPE,NORAD_CAT_ID,ELEMENT_SET_NO,REV_AT_EPOCH,BSTAR,MEAN_MOTION_DOT,MEAN_MOTION_DDOT
STARLINK-37189,2026-073B,2026-07-22T12:08:52.145376,15.33453880,.00021973,97.2889,42.3248,102.6706,257.4782,0,U,68603,999,1654,.20010621E-2,.65106E-3,0
STARLINK-37130,2026-073C,2026-07-22T12:16:44.482080,15.33451354,.00020561,97.2869,42.3183,86.4066,273.7411,0,U,68604,999,1654,.65382233E-3,.21097E-3,0
STARLINK-37131,2026-073D,2026-07-22T01:22:50.690496,15.33457733,.00015995,97.2849,41.8675,133.5982,226.5394,0,U,68605,999,1647,.60522014E-3,.19522E-3,0
STARLINK-37253,2026-073E,2026-07-22T18:59:59.017056,15.33455578,.00021218,97.2848,42.7062,91.9756,268.1730,0,U,68606,999,1659,.52092178E-3,.16786E-3,0
STARLINK-37246,2026-073F,2026-07-22T03:12:28.934208,15.33459420,.00024068,97.2840,42.0654,91.3450,268.8069,0,U,68607,999,1649,.74188671E-3,.23964E-3,0
STARLINK-37243,2026-073G,2026-07-22T06:43:54.227136,15.33439848,.00017378,97.2866,42.1796,96.0839,264.0602,0,U,68608,999,1651,.45975454E-3,.14794E-3,0
STARLINK-37250,2026-073H,2026-07-22T03:00:43.761600,15.33459461,.00012765,97.2842,41.9279,103.5550,256.5835,0,U,68609,999,1648,.79542345E-3,.25703E-3,0
STARLINK-37105,2026-073J,2026-07-22T19:07:48.703008,15.33430141,.00013336,97.2944,42.6969,111.3205,248.8180,0,U,68610,999,1659,.52134125E-3,.16785E-3,0
STARLINK-37177,2026-073K,2026-07-22T06:55:39.086112,15.33451268,.00021159,97.2881,42.1659,96.3242,263.8242,0,U,68611,999,1651,.44037727E-3,.14172E-3,0
STARLINK-36386,2026-073L,2026-07-22T19:50:52.923552,15.33454357,.00013101,97.2868,42.6584,99.3147,260.8244,0,U,68612,999,1659,.88150641E-3,.28499E-3,0
STARLINK-36187,2026-073M,2026-07-22T03:04:38.690112,15.33459516,.00016215,97.2834,42.0749,94.8899,265.2529,0,U,68613,999,1649,.74557476E-3,.24083E-3,0
STARLINK-37170,2026-073N,2026-07-22T02:09:50.077152,15.33445803,.00021705,97.2881,41.9737,86.3294,273.8197,0,U,68614,999,1648,.30783642E-3,.9877E-4,0
STARLINK-37176,2026-073P,2026-07-22T12:40:12.033120,15.33449624,.00019351,97.2870,42.4522,86.2435,273.9029,0,U,68615,999,1655,.81201178E-3,.26235E-3,0
STARLINK-37152,2026-073Q,2026-07-22T19:19:33.748608,15.33487118,.00025058,97.2896,42.6841,102.2753,257.8770,0,U,68616,999,1659,.8464952E-3,.2739E-3,0
STARLINK-37186,2026-073R,2026-07-22T20:02:37.806720,15.33465916,.00028465,97.2863,42.6445,87.1233,273.0335,0,U,68617,999,1659,.66967574E-3,.21623E-3,0
STARLINK-37179,2026-073S,2026-07-22T06:39:59.407488,15.33452908,.00018978,97.2878,42.1766,87.7840,272.3620,0,U,68618,999,1651,.18661492E-3,.5956E-4,0
STARLINK-37226,2026-073T,2026-07-22T19:35:13.126560,15.33449943,.0001325,97.2902,42.6726,93.2549,266.8845,0,U,68619,999,1659,.50071229E-3,.16127E-3,0
STARLINK-37211,2026-073U,2026-07-22T03:08:33.622944,15.33451144,.00015024,97.2859,42.0727,91.3483,268.7932,0,U,68620,999,1649,.43681986E-3,.14056E-3,0
STARLINK-37269,2026-073V,2026-07-22T02:29:24.841536,15.33450472,.00027591,97.2870,41.9527,91.2752,268.8807,0,U,68621,999,1648,.48932481E-3,.15759E-3,0
STARLINK-37252,2026-073W,2026-07-22T19:46:57.971712,15.33466979,.00025438,97.2885,42.6593,92.4910,267.6624,0,U,68622,999,1659,.83779784E-3,.2709E-3,0
STARLINK-37284,2026-073X,2026-07-22T19:54:48.058560,15.33439584,.00010583,97.2869,42.6558,102.0896,258.0465,0,U,68623,999,1659,.77013364E-3,.24865E-3,0
STARLINK-37231,2026-073Y,2026-07-22T19:31:18.227424,15.33463859,.00026696,97.2881,42.6729,96.5334,263.6212,0,U,68624,999,1659,.73044871E-3,.23596E-3,0
STARLINK-37249,2026-073Z,2026-07-22T19:03:53.974080,15.33456331,.00021611,97.2856,42.7032,91.3169,268.8322,0,U,68625,999,1659,.70084819E-3,.22628E-3,0
STARLINK-37285,2026-073AA,2026-07-22T02:58:56.660160,15.33451850,.00019084,97.2860,42.8413,71.2416,288.9034,0,U,68626,999,1654,.42624716E-3,.13714E-3,0
STARLINK-37195,2026-077A,2026-07-22T21:23:28.519584,15.33444714,.00026429,97.2842,74.5649,93.9692,266.1853,0,U,68662,999,1587,.78073598E-3,.25216E-3,0
STARLINK-37222,2026-077B,2026-07-22T08:43:51.947616,15.33450187,.00023266,97.2852,74.0589,91.8843,268.2666,0,U,68663,999,1579,.85431124E-3,.27612E-3,0
STARLINK-37153,2026-077C,2026-07-22T21:19:31.481184,15.33455736,.0001615,97.2859,74.5710,82.0501,278.0925,0,U,68664,999,1587,.45828039E-3,.14754E-3,0
STARLINK-37171,2026-077D,2026-07-22T03:58:02.939520,15.33464660,.0001414,97.2824,73.8668,108.9533,251.1863,0,U,68665,999,1576,.57335457E-3,.18492E-3,0
STARLINK-37109,2026-077E,2026-07-22T21:07:46.727616,15.33458112,.00010573,97.2868,74.5816,90.6105,269.5259,0,U,68666,999,1587,.4898855E-3,.1578E-3,0
STARLINK-36295,2026-077F,2026-07-22T05:24:11.426400,15.33457738,.0002339,97.2836,73.9425,86.8809,273.2702,0,U,68667,999,1577,.79864843E-3,.25808E-3,0
